OSCAR 7 (AO-7)          
1 07530U 74089B   26164.95257611 -.00000028  00000+0  11230-3 0  9998
2 07530 101.9901 178.1655 0012536 136.1273 292.1126 12.53698061360116
PHASE 3B (AO-10)        
1 14129U 83058B   26164.48490246  .00000072  00000+0  00000+0 0  9994
2 14129  25.9094 220.1781 6012114 114.6492 317.6358  2.05869395295412
UOSAT 2 (UO-11)         
1 14781U 84021B   26165.20095833  .00001160  00000+0  12366-3 0  9994
2 14781  97.8057 130.8090 0007353 182.6210 177.4971 14.90776632256686
LUSAT (LO-19)           
1 20442U 90005G   26164.97260119  .00000110  00000+0  56016-4 0  9993
2 20442  98.8851 186.6896 0010942 210.9813 149.0726 14.34122315901934
EYESAT A (AO-27)        
1 22825U 93061C   26165.20292012  .00000088  00000+0  50393-4 0  9995
2 22825  98.6880 232.6175 0009510 107.4097 252.8126 14.30941512706570
ITAMSAT (IO-26)         
1 22826U 93061D   26165.18322286  .00000084  00000+0  48499-4 0  9990
2 22826  98.6828 232.5150 0010095  92.8223 267.4115 14.31368337706886
RADIO ROSTO (RS15)      
1 23439U 94085A   26165.10055205 -.00000049  00000+0 -18898-3 0  9996
2 23439  64.8180 308.2082 0155856   4.4474 355.7795 11.27583525295552
JAS-2 (FO-29)           
1 24278U 96046B   26165.13192875  .00000020  00000+0  52658-4 0  9995
2 24278  98.5241  14.4226 0350867 104.3391 259.6965 13.53274148472758
TECHSAT 1B (GO-32)      
1 25397U 98043D   26164.97369742  .00000055  00000+0  43938-4 0  9996
2 25397  99.0066 157.6512 0000887 169.9985 190.1211 14.24427891450876
ISS (ZARYA)             
1 25544U 98067A   26165.09325830  .00008623  00000+0  16324-3 0  9997
2 25544  51.6335 315.4063 0004936 183.6835 176.4118 15.49219019571274
PCSAT (NO-44)           
1 26931U 01043C   26164.94642615  .00000105  00000+0  70015-4 0  9997
2 26931  67.0507 252.6539 0006075 264.5916  95.4493 14.31955079289985
SAUDISAT 1C (SO-50)     
1 27607U 02058C   26165.18826926  .00000933  00000+0  12736-3 0  9995
2 27607  64.5509 138.2640 0075328 263.0278  96.2256 14.83041063264013
CUTE-1 (CO-55)          
1 27844U 03031E   26165.01650922  .00000269  00000+0  13536-3 0  9994
2 27844  98.6736 173.6152 0009316 187.2201 172.8845 14.24333986191224
CUBESAT XI-IV (CO-57)   
1 27848U 03031J   26165.00337660  .00000226  00000+0  11831-3 0  9997
2 27848  98.6766 173.3175 0008816 206.8109 153.2615 14.23619332190927
MOZHAETS 4 (RS22)       
1 27939U 03042A   26165.22894986  .00000946  00000+0  15390-3 0  9996
2 27939  98.3465 349.5045 0009979 280.5424 165.9792 14.73462513215111
CUBESAT XI-V            
1 28895U 05043F   26164.39375696  .00001317  00000+0  21486-3 0  9996
2 28895  98.2979 319.9359 0013416 213.2696 146.7669 14.72622172101196
CUTE-1.7+APD II (CO-65) 
1 32785U 08021C   26165.13308892  .00005152  00000+0  32589-3 0  9992
2 32785  97.8270 146.4881 0010159  48.7687 311.4415 15.09428458984734
SEEDS II (CO-66)        
1 32791U 08021J   26164.93655222  .00018728  00000+0  59582-3 0  9993
2 32791  97.7509 162.6789 0001549  14.7739 345.3547 15.32650243986791
YUBILEINY (RS30)        
1 32953U 08025A   26165.20125294  .00000110  00000+0  71742-3 0  9997
2 32953  82.5044 357.2985 0018980 320.6774  39.2927 12.43179508819326
KKS-1 (KISEKI)          
1 33499U 09002H   26165.15314762  .00001228  00000+0  15747-3 0  9997
2 33499  98.1192  87.5473 0006679 307.6212  52.4394 14.83117103935747
SWISSCUBE               
1 35932U 09051B   26164.67936614  .00000937  00000+0  19470-3 0  9990
2 35932  98.4039  72.5065 0005755 215.4372 144.6447 14.62475781888647
BEESAT-1                
1 35933U 09051C   26164.68697727  .00000783  00000+0  16700-3 0  9993
2 35933  98.3968  72.1570 0004054 230.6846 129.3995 14.61715545888676
ITUPSAT1                
1 35935U 09051E   26164.67480330  .00000706  00000+0  15577-3 0  9990
2 35935  98.4053  71.3404 0006156 247.1048 112.9502 14.60435999888227
XIWANG-1 (HOPE-1)       
1 36122U 09072B   26165.12791642  .00000106  00000+0  39407-3 0  9996
2 36122 100.4021 119.0087 0006831 239.2199 120.8241 13.16440351792603
O/OREOS (USA 219)       
1 37224U 10062C   26165.18250906  .00002244  00000+0  21739-3 0  9994
2 37224  71.9713  87.1452 0012472  69.6515 290.5994 14.93733212116194
JUGNU                   
1 37839U 11058B   26165.13992559  .00000401  00000+0  70161-4 0  9991
2 37839  19.9620 326.9419 0018614  42.7337 118.6103 14.13775965758591
SRMSAT                  
1 37841U 11058D   26165.10596874  .00000361  00000+0  51961-4 0  9993
2 37841  19.9719  78.1172 0011859 169.7435 229.6321 14.11574986757387
STRAND-1                
1 39090U 13009E   26164.99264802  .00000257  00000+0  10072-3 0  9999
2 39090  98.3921 345.3057 0007584 236.1034 123.9432 14.37161671696603
ZACUBE-1 (TSHEPISOSAT)  
1 39417U 13066B   26165.14115578  .00003529  00000+0  27550-3 0  9992
2 39417  97.8083 127.4617 0040472 258.3287 101.3393 15.01173415680272
GOMX-1                  
1 39430U 13066Q   26165.18984862  .00001992  00000+0  30268-3 0  9993
2 39430  97.6484   5.8423 0130187  87.0635 274.5462 14.69450244669471
